{"type": "FeatureCollection", "features": [ {"type": "Feature", "properties": {"norad_id": 29906, "name": "FENGYUN 1C DEB", "group": "fengyun-1c-debris", "lat": 35.32671545645958, "lon": -87.73246284070574, "alt_km": 699.371934263293, "timestamp": "2025-12-08T19:31:49.081984+00:00", "meta": {"OBJECT_NAME": "FENGYUN 1C DEB", "OBJECT_ID": "1999-025HC", "EPOCH": "2025-12-08T05:36:51.181344", "MEAN_MOTION": 14.49505798, "ECCENTRICITY": 0.00373414, "INCLINATION": 98.7061, "RA_OF_ASC_NODE": 85.4345, "ARG_OF_PERICENTER": 162.4477, "MEAN_ANOMALY": 197.8015, "EPHEMERIS_TYPE": 0, "CLASSIFICATION_TYPE": "U", "NORAD_CAT_ID": 29906, "ELEMENT_SET_NO": 999, "REV_AT_EPOCH": 98092, "BSTAR": 0.0032988034, "MEAN_MOTION_DOT": 0.00012729, "MEAN_MOTION_DDOT": 0}, "tle": {"line1": "1 29906U 99025HC  25342.23392571  .00012729  00000+0  32988-2 0  9991", "line2": "2 29906  98.7061  85.4345 0037341 162.4477 197.8015 14.49505798980928"}}, "geometry": {"type": "Point", "coordinates": [-87.73246284070574, 35.32671545645958]}}, {"type": "Feature", "properties": {"norad_id": 29907, "name": "FENGYUN 1C DEB", "group": "fengyun-1c-debris", "lat": 72.1509774206234, "lon": -100.67951412918455, "alt_km": 901.6392866602009, "timestamp": "2025-12-08T19:31:49.081994+00:00", "meta": {"OBJECT_NAME": "FENGYUN 1C DEB", "OBJECT_ID": "1999-025HD", "EPOCH": "2025-12-08T03:58:34.876416", "MEAN_MOTION": 14.11594197, "ECCENTRICITY": 0.00835428, "INCLINATION": 99.1116, "RA_OF_ASC_NODE": 48.7697, "ARG_OF_PERICENTER": 262.3005, "MEAN_ANOMALY": 151.9218, "EPHEMERIS_TYPE": 0, "CLASSIFICATION_TYPE": "U", "NORAD_CAT_ID": 29907, "ELEMENT_SET_NO": 999, "REV_AT_EPOCH": 96534, "BSTAR": 0.0019681416, "MEAN_MOTION_DOT": 3.65e-05, "MEAN_MOTION_DDOT": 0}, "tle": {"line1": "1 29907U 99025HD  25342.16568144  .00003650  00000+0  19681-2 0  9993", "line2": "2 29907  99.1116  48.7697 0083542 262.3005 151.9218 14.11594197965343"}}, "geometry": {"type": "Point", "coordinates": [-100.67951412918455, 72.1509774206234]}}, {"type": "Feature", "properties": {"norad_id": 29909, "name": "FENGYUN 1C DEB", "group": "fengyun-1c-debris", "lat": 36.30105218340644, "lon": -87.10417857574139, "alt_km": 718.3129132809281, "timestamp": "2025-12-08T19:31:49.082003+00:00", "meta": {"OBJECT_NAME": "FENGYUN 1C DEB", "OBJECT_ID": "1999-025HF", "EPOCH": "2025-12-08T05:57:06.520032", "MEAN_MOTION": 14.55001383, "ECCENTRICITY": 0.0038413, "INCLINATION": 98.6353, "RA_OF_ASC_NODE": 85.902, "ARG_OF_PERICENTER": 29.5662, "MEAN_ANOMALY": 31.3673, "EPHEMERIS_TYPE": 0, "CLASSIFICATION_TYPE": "U", "NORAD_CAT_ID": 29909, "ELEMENT_SET_NO": 999, "REV_AT_EPOCH": 98340, "BSTAR": 0.0026224818, "MEAN_MOTION_DOT": 0.00011373, "MEAN_MOTION_DDOT": 0}, "tle": {"line1": "1 29909U 99025HF  25342.24799213  .00011373  00000+0  26225-2 0  9990", "line2": "2 29909  98.6353  85.9020 0038413  29.5662  31.3673 14.55001383983405"}}, "geometry": {"type": "Point", "coordinates": [-87.10417857574139, 36.30105218340644]}}, {"type": "Feature", "properties": {"norad_id": 29911, "name": "FENGYUN 1C DEB", "group": "fengyun-1c-debris", "lat": 76.15168577403453, "lon": -12.487507670747222, "alt_km": 819.458981142503, "timestamp": "2025-12-08T19:31:49.082012+00:00", "meta": {"OBJECT_NAME": "FENGYUN 1C DEB", "OBJECT_ID": "1999-025HH", "EPOCH": "2025-12-08T02:21:49.813344", "MEAN_MOTION": 14.18833319, "ECCENTRICITY": 0.00273543, "INCLINATION": 98.7155, "RA_OF_ASC_NODE": 25.2902, "ARG_OF_PERICENTER": 163.8381, "MEAN_ANOMALY": 224.2928, "EPHEMERIS_TYPE": 0, "CLASSIFICATION_TYPE": "U", "NORAD_CAT_ID": 29911, "ELEMENT_SET_NO": 999, "REV_AT_EPOCH": 97365, "BSTAR": 0.00099047302, "MEAN_MOTION_DOT": 2.025e-05, "MEAN_MOTION_DDOT": 0}, "tle": {"line1": "1 29911U 99025HH  25342.09849321  .00002025  00000+0  99047-3 0  9999", "line2": "2 29911  98.7155  25.2902 0027354 163.8381 224.2928 14.18833319973650"}}, "geometry": {"type": "Point", "coordinates": [-12.487507670747222, 76.15168577403453]}}, {"type": "Feature", "properties": {"norad_id": 29912, "name": "FENGYUN 1C DEB", "group": "fengyun-1c-debris", "lat": 56.04528691669277, "lon": 66.95724213495832, "alt_km": 773.8096296772419, "timestamp": "2025-12-08T19:31:49.082020+00:00", "meta": {"OBJECT_NAME": "FENGYUN 1C DEB", "OBJECT_ID": "1999-025HJ", "EPOCH": "2025-12-08T06:12:15.569856", "MEAN_MOTION": 14.42877357, "ECCENTRICITY": 0.00427149, "INCLINATION": 98.7386, "RA_OF_ASC_NODE": 79.5925, "ARG_OF_PERICENTER": 231.8377, "MEAN_ANOMALY": 182.8253, "EPHEMERIS_TYPE": 0, "CLASSIFICATION_TYPE": "U", "NORAD_CAT_ID": 29912, "ELEMENT_SET_NO": 999, "REV_AT_EPOCH": 97974, "BSTAR": 0.0029418518, "MEAN_MOTION_DOT": 9.901e-05, "MEAN_MOTION_DDOT": 0}, "tle": {"line1": "1 29912U 99025HJ  25342.25851354  .00009901  00000+0  29419-2 0  9992", "line2": "2 29912  98.7386  79.5925 0042714 231.8377 182.8253 14.42877357979745"}}, "geometry": {"type": "Point", "coordinates": [66.95724213495832, 56.04528691669277]}}, {"type": "Feature", "properties": {"norad_id": 29913, "name": "FENGYUN 1C DEB", "group": "fengyun-1c-debris", "lat": -50.105184311373876, "lon": -7.563662028799593, "alt_km": 834.9356542275455, "timestamp": "2025-12-08T19:31:49.082030+00:00", "meta": {"OBJECT_NAME": "FENGYUN 1C DEB", "OBJECT_ID": "1999-025HK", "EPOCH": "2025-12-07T23:33:31.802976", "MEAN_MOTION": 14.07373793, "ECCENTRICITY": 0.0061948, "INCLINATION": 98.7875, "RA_OF_ASC_NODE": 340.9642, "ARG_OF_PERICENTER": 285.1289, "MEAN_ANOMALY": 129.9522, "EPHEMERIS_TYPE": 0, "CLASSIFICATION_TYPE": "U", "NORAD_CAT_ID": 29913, "ELEMENT_SET_NO": 999, "REV_AT_EPOCH": 96898, "BSTAR": 0.00043873696, "MEAN_MOTION_DOT": 7.07e-06, "MEAN_MOTION_DDOT": 0}, "tle": {"line1": "1 29913U 99025HK  25341.98161809  .00000707  00000+0  43874-3 0  9998", "line2": "2 29913  98.7875 340.9642 0061948 285.1289 129.9522 14.07373793968985"}}, "geometry": {"type": "Point", "coordinates": [-7.563662028799593, -50.105184311373876]}}, {"type": "Feature", "properties": {"norad_id": 29914, "name": "FENGYUN 1C DEB", "group": "fengyun-1c-debris", "lat": 30.255610665349053, "lon": -163.2869909091629, "alt_km": 857.0452428639792, "timestamp": "2025-12-08T19:31:49.082039+00:00", "meta": {"OBJECT_NAME": "FENGYUN 1C DEB", "OBJECT_ID": "1999-025HL", "EPOCH": "2025-12-08T01:59:57.490656", "MEAN_MOTION": 14.03130009, "ECCENTRICITY": 0.00364012, "INCLINATION": 98.8452, "RA_OF_ASC_NODE": 10.7918, "ARG_OF_PERICENTER": 127.8905, "MEAN_ANOMALY": 293.4867, "EPHEMERIS_TYPE": 0, "CLASSIFICATION_TYPE": "U", "NORAD_CAT_ID": 29914, "ELEMENT_SET_NO": 999, "REV_AT_EPOCH": 96721, "BSTAR": 0.00024094457, "MEAN_MOTION_DOT": 3.35e-06, "MEAN_MOTION_DDOT": 0}, "tle": {"line1": "1 29914U 99025HL  25342.08330429  .00000335  00000+0  24094-3 0  9997", "line2": "2 29914  98.8452  10.7918 0036401 127.8905 293.4867 14.03130009967210"}}, "geometry": {"type": "Point", "coordinates": [-163.2869909091629, 30.255610665349053]}}, {"type": "Feature", "properties": {"norad_id": 29916, "name": "FENGYUN 1C DEB", "group": "fengyun-1c-debris", "lat": 77.41302676186547, "lon": -44.18996730213574, "alt_km": 1239.0430573494687, "timestamp": "2025-12-08T19:31:49.082048+00:00", "meta": {"OBJECT_NAME": "FENGYUN 1C DEB", "OBJECT_ID": "1999-025HN", "EPOCH": "2025-12-07T07:49:47.168832", "MEAN_MOTION": 13.5697469, "ECCENTRICITY": 0.02711225, "INCLINATION": 99.1951, "RA_OF_ASC_NODE": 0.921, "ARG_OF_PERICENTER": 272.3876, "MEAN_ANOMALY": 105.6909, "EPHEMERIS_TYPE": 0, "CLASSIFICATION_TYPE": "U", "NORAD_CAT_ID": 29916, "ELEMENT_SET_NO": 999, "REV_AT_EPOCH": 93379, "BSTAR": 0.0011167994, "MEAN_MOTION_DOT": 9.64e-06, "MEAN_MOTION_DDOT": 0}, "tle": {"line1": "1 29916U 99025HN  25341.32624038  .00000964  00000+0  11168-2 0  9992", "line2": "2 29916  99.1951   0.9210 0271122 272.3876 105.6909 13.56974690933796"}}, "geometry": {"type": "Point", "coordinates": [-44.18996730213574, 77.41302676186547]}}, {"type": "Feature", "properties": {"norad_id": 29917, "name": "FENGYUN 1C DEB", "group": "fengyun-1c-debris", "lat": -18.792001457703144, "lon": -152.20323835360048, "alt_km": 1149.6234705690458, "timestamp": "2025-12-08T19:31:49.082057+00:00", "meta": {"OBJECT_NAME": "FENGYUN 1C DEB", "OBJECT_ID": "1999-025HP", "EPOCH": "2025-12-07T21:26:25.166112", "MEAN_MOTION": 13.70394392, "ECCENTRICITY": 0.0222626, "INCLINATION": 98.8765, "RA_OF_ASC_NODE": 203.8983, "ARG_OF_PERICENTER": 137.2286, "MEAN_ANOMALY": 346.6291, "EPHEMERIS_TYPE": 0, "CLASSIFICATION_TYPE": "U", "NORAD_CAT_ID": 29917, "ELEMENT_SET_NO": 999, "REV_AT_EPOCH": 94064, "BSTAR": 0.0014311102, "MEAN_MOTION_DOT": 1.469e-05, "MEAN_MOTION_DDOT": 0}, "tle": {"line1": "1 29917U 99025HP  25341.89334683  .00001469  00000+0  14311-2 0  9993", "line2": "2 29917  98.8765 203.8983 0222626 137.2286 346.6291 13.70394392940640"}}, "geometry": {"type": "Point", "coordinates": [-152.20323835360048, -18.792001457703144]}}, {"type": "Feature", "properties": {"norad_id": 29918, "name": "FENGYUN 1C DEB", "group": "fengyun-1c-debris", "lat": -1.3753207790297812, "lon": 65.37450715636118, "alt_km": 775.0577428375609, "timestamp": "2025-12-08T19:31:49.082066+00:00", "meta": {"OBJECT_NAME": "FENGYUN 1C DEB", "OBJECT_ID": "1999-025HQ", "EPOCH": "2025-12-08T04:35:51.191808", "MEAN_MOTION": 14.33543447, "ECCENTRICITY": 0.00127335, "INCLINATION": 98.8543, "RA_OF_ASC_NODE": 64.5238, "ARG_OF_PERICENTER": 331.041, "MEAN_ANOMALY": 58.4194, "EPHEMERIS_TYPE": 0, "CLASSIFICATION_TYPE": "U", "NORAD_CAT_ID": 29918, "ELEMENT_SET_NO": 999, "REV_AT_EPOCH": 97729, "BSTAR": 0.0020012268, "MEAN_MOTION_DOT": 5.499e-05, "MEAN_MOTION_DDOT": 0}, "tle": {"line1": "1 29918U 99025HQ  25342.19156472  .00005499  00000+0  20012-2 0  9998", "line2": "2 29918  98.8543  64.5238 0012733 331.0410  58.4194 14.33543447977297"}}, "geometry": {"type": "Point", "coordinates": [65.37450715636118, -1.3753207790297812]}}]}